start=new Date('2022-06-27T00:00:00.000Z').valueOf();
sats=[{"CLASSIFICATION_TYPE":"U","MEAN_ELEMENT_THEORY":"SGP4","PERIAPSIS":"546.287","SITE":"AFETR","ARG_OF_PERICENTER":"82.1044","TLE_LINE1":"1 48397U 21038AW  22177.80423483  .00000007  00000-0  19357-4 0  9992","DECAY_DATE":null,"NORAD_CAT_ID":"48397","GP_ID":"206926477","MEAN_MOTION_DOT":"0.00000007","OBJECT_NAME":"STARLINK-2590","EPOCH":"2022-06-26T19:18:05.889312","MEAN_MOTION":"15.06401647","ECCENTRICITY":"0.00013300","APOAPSIS":"548.130","TIME_SYSTEM":"UTC","MEAN_ANOMALY":"278.0096","PERIOD":"95.592","RCS_SIZE":"LARGE","OBJECT_TYPE":"PAYLOAD","INCLINATION":"53.0559","BSTAR":"0.00001935700000","SEMIMAJOR_AXIS":"6925.344","REV_AT_EPOCH":"6476","RA_OF_ASC_NODE":"290.4796","MEAN_MOTION_DDOT":"0.0000000000000","OBJECT_ID":"2021-038AW","CENTER_NAME":"EARTH","EPHEMERIS_TYPE":"0","LAUNCH_DATE":"2021-05-04","REF_FRAME":"TEME","ELEMENT_SET_NO":"999","COUNTRY_CODE":"US","TLE_LINE2":"2 48397  53.0559 290.4796 0001330  82.1044 278.0096 15.06401647 64762","FILE":"3503441"},{"ELEMENT_SET_NO":"999","TLE_LINE2":"2 48398  53.0553 291.0845 0001527  66.1944 293.9205 15.06399430 64740","FILE":"3503441","COUNTRY_CODE":"US","REF_FRAME":"TEME","LAUNCH_DATE":"2021-05-04","EPHEMERIS_TYPE":"0","CENTER_NAME":"EARTH","OBJECT_ID":"2021-038AX","MEAN_MOTION_DDOT":"0.0000000000000","REV_AT_EPOCH":"6474","SEMIMAJOR_AXIS":"6925.350","RA_OF_ASC_NODE":"291.0845","BSTAR":"0.00015145000000","INCLINATION":"53.0553","RCS_SIZE":"LARGE","OBJECT_TYPE":"PAYLOAD","PERIOD":"95.592","MEAN_ANOMALY":"293.9205","ECCENTRICITY":"0.00015270","APOAPSIS":"548.273","TIME_SYSTEM":"UTC","OBJECT_NAME":"STARLINK-2588","EPOCH":"2022-06-26T16:01:42.704832","MEAN_MOTION":"15.06399430","GP_ID":"206926705","MEAN_MOTION_DOT":"0.00001975","NORAD_CAT_ID":"48398","DECAY_DATE":null,"SITE":"AFETR","ARG_OF_PERICENTER":"66.1944","PERIAPSIS":"546.158","TLE_LINE1":"1 48398U 21038AX  22177.66785538  .00001975  00000-0  15145-3 0  9994","MEAN_ELEMENT_THEORY":"SGP4","CLASSIFICATION_TYPE":"U"},{"REV_AT_EPOCH":"6473","SEMIMAJOR_AXIS":"6925.328","RA_OF_ASC_NODE":"291.1069","INCLINATION":"53.0545","BSTAR":"0.00008722600000","RCS_SIZE":"LARGE","OBJECT_TYPE":"PAYLOAD","MEAN_ANOMALY":"294.4415","PERIOD":"95.592","ELEMENT_SET_NO":"999","COUNTRY_CODE":"US","TLE_LINE2":"2 48399  53.0545 291.1069 0001540  65.6734 294.4415 15.06406692 64734","FILE":"3503441","LAUNCH_DATE":"2021-05-04","REF_FRAME":"TEME","OBJECT_ID":"2021-038AY","EPHEMERIS_TYPE":"0","CENTER_NAME":"EARTH","MEAN_MOTION_DDOT":"0.0000000000000","GP_ID":"206924977","MEAN_MOTION_DOT":"0.00001018","SITE":"AFETR","ARG_OF_PERICENTER":"65.6734","PERIAPSIS":"546.127","TLE_LINE1":"1 48399U 21038AY  22177.66416398  .00001018  00000-0  87226-4 0  9998","NORAD_CAT_ID":"48399","DECAY_DATE":null,"CLASSIFICATION_TYPE":"U","MEAN_ELEMENT_THEORY":"SGP4","ECCENTRICITY":"0.00015400","APOAPSIS":"548.260","TIME_SYSTEM":"UTC","OBJECT_NAME":"STARLINK-2587","EPOCH":"2022-06-26T15:56:23.767872","MEAN_MOTION":"15.06406692"},{"EPHEMERIS_TYPE":"0","CENTER_NAME":"EARTH","OBJECT_ID":"2021-038AZ","MEAN_MOTION_DDOT":"0.0000000000000","TLE_LINE2":"2 48400  53.0561 290.8314 0001636  60.9890 299.1262 15.06402812 63530","COUNTRY_CODE":"US","FILE":"3503441","ELEMENT_SET_NO":"999","REF_FRAME":"TEME","LAUNCH_DATE":"2021-05-04","OBJECT_TYPE":"PAYLOAD","RCS_SIZE":"LARGE","PERIOD":"95.592","MEAN_ANOMALY":"299.1262","RA_OF_ASC_NODE":"290.8314","REV_AT_EPOCH":"6353","SEMIMAJOR_AXIS":"6925.340","BSTAR":"0.00002936000000","INCLINATION":"53.0561","MEAN_MOTION":"15.06402812","EPOCH":"2022-06-26T17:26:37.702464","OBJECT_NAME":"STARLINK-2576","APOAPSIS":"548.338","TIME_SYSTEM":"UTC","ECCENTRICITY":"0.00016360","DECAY_DATE":null,"NORAD_CAT_ID":"48400","TLE_LINE1":"1 48400U 21038AZ  22177.72682526  .00000156  00000-0  29360-4 0  9993","PERIAPSIS":"546.072","SITE":"AFETR","ARG_OF_PERICENTER":"60.9890","MEAN_ELEMENT_THEORY":"SGP4","CLASSIFICATION_TYPE":"U","MEAN_MOTION_DOT":"0.00000156","GP_ID":"206925726"},{"GP_ID":"206925978","MEAN_MOTION_DOT":"0.00002358","NORAD_CAT_ID":"48401","DECAY_DATE":null,"PERIAPSIS":"546.171","SITE":"AFETR","ARG_OF_PERICENTER":"59.1618","TLE_LINE1":"1 48401U 21038BA  22177.69734369  .00002358  00000-0  17713-3 0  9997","MEAN_ELEMENT_THEORY":"SGP4","CLASSIFICATION_TYPE":"U","ECCENTRICITY":"0.00015090","TIME_SYSTEM":"UTC","APOAPSIS":"548.262","OBJECT_NAME":"STARLINK-2571","EPOCH":"2022-06-26T16:44:10.494816","MEAN_MOTION":"15.06399041","REV_AT_EPOCH":"6352","SEMIMAJOR_AXIS":"6925.351","RA_OF_ASC_NODE":"290.9685","BSTAR":"0.00017713000000","INCLINATION":"53.0552","RCS_SIZE":"LARGE","OBJECT_TYPE":"PAYLOAD","PERIOD":"95.592","MEAN_ANOMALY":"300.9519","ELEMENT_SET_NO":"999","COUNTRY_CODE":"US","TLE_LINE2":"2 48401  53.0552 290.9685 0001509  59.1618 300.9519 15.06399041 63524","FILE":"3503441","REF_FRAME":"TEME","LAUNCH_DATE":"2021-05-04","EPHEMERIS_TYPE":"0","CENTER_NAME":"EARTH","OBJECT_ID":"2021-038BA","MEAN_MOTION_DDOT":"0.0000000000000"},{"RA_OF_ASC_NODE":"291.4261","SEMIMAJOR_AXIS":"6925.354","REV_AT_EPOCH":"6410","BSTAR":"0.00004360700000","INCLINATION":"53.0559","OBJECT_TYPE":"PAYLOAD","RCS_SIZE":"LARGE","PERIOD":"95.592","MEAN_ANOMALY":"291.5420","FILE":"3503340","TLE_LINE2":"2 48402  53.0559 291.4261 0001513  68.5731 291.5420 15.06398378 64106","COUNTRY_CODE":"US","ELEMENT_SET_NO":"999","REF_FRAME":"TEME","LAUNCH_DATE":"2021-05-04","EPHEMERIS_TYPE":"0","CENTER_NAME":"EARTH","OBJECT_ID":"2021-038BB","MEAN_MOTION_DDOT":"0.0000000000000","MEAN_MOTION_DOT":"0.00000368","GP_ID":"206902174","DECAY_DATE":null,"NORAD_CAT_ID":"48402","TLE_LINE1":"1 48402U 21038BB  22177.58950372  .00000368  00000-0  43607-4 0  9991","SITE":"AFETR","ARG_OF_PERICENTER":"68.5731","PERIAPSIS":"546.171","MEAN_ELEMENT_THEORY":"SGP4","CLASSIFICATION_TYPE":"U","TIME_SYSTEM":"UTC","APOAPSIS":"548.266","ECCENTRICITY":"0.00015130","MEAN_MOTION":"15.06398378","EPOCH":"2022-06-26T14:08:53.121408","OBJECT_NAME":"STARLINK-2560"},{"GP_ID":"206894644","MEAN_MOTION_DOT":"0.00001818","MEAN_ELEMENT_THEORY":"SGP4","CLASSIFICATION_TYPE":"U","DECAY_DATE":null,"NORAD_CAT_ID":"48403","SITE":"AFETR","ARG_OF_PERICENTER":"71.4790","PERIAPSIS":"546.230","TLE_LINE1":"1 48403U 21038BC  22177.58677499  .00001818  00000-0  14093-3 0  9995","ECCENTRICITY":"0.00014530","TIME_SYSTEM":"UTC","APOAPSIS":"548.243","OBJECT_NAME":"STARLINK-2561","EPOCH":"2022-06-26T14:04:57.359136","MEAN_MOTION":"15.06392582","BSTAR":"0.00014093000000","INCLINATION":"53.0569","REV_AT_EPOCH":"6351","SEMIMAJOR_AXIS":"6925.371","RA_OF_ASC_NODE":"291.4534","PERIOD":"95.593","MEAN_ANOMALY":"288.6357","RCS_SIZE":"LARGE","OBJECT_TYPE":"PAYLOAD","REF_FRAME":"TEME","LAUNCH_DATE":"2021-05-04","ELEMENT_SET_NO":"999","TLE_LINE2":"2 48403  53.0569 291.4534 0001453  71.4790 288.6357 15.06392582 63513","COUNTRY_CODE":"US","FILE":"3503181","MEAN_MOTION_DDOT":"0.0000000000000","EPHEMERIS_TYPE":"0","CENTER_NAME":"EARTH","OBJECT_ID":"2021-038BC"},{"OBJECT_ID":"2021-038BD","EPHEMERIS_TYPE":"0","CENTER_NAME":"EARTH","MEAN_MOTION_DDOT":"0.0000000000000","TLE_LINE2":"2 48404  53.0557 291.4735 0001237  68.8909 291.2212 15.06395306 63513","COUNTRY_CODE":"US","FILE":"3503181","ELEMENT_SET_NO":"999","LAUNCH_DATE":"2021-05-04","REF_FRAME":"TEME","OBJECT_TYPE":"PAYLOAD","RCS_SIZE":"LARGE","MEAN_ANOMALY":"291.2212","PERIOD":"95.592","RA_OF_ASC_NODE":"291.4735","REV_AT_EPOCH":"6351","SEMIMAJOR_AXIS":"6925.363","INCLINATION":"53.0557","BSTAR":"0.00008293200000","MEAN_MOTION":"15.06395306","EPOCH":"2022-06-26T13:59:38.844672","OBJECT_NAME":"STARLINK-2593","APOAPSIS":"548.085","TIME_SYSTEM":"UTC","ECCENTRICITY":"0.00012370","TLE_LINE1":"1 48404U 21038BD  22177.58308848  .00000954  00000-0  82932-4 0  9993","ARG_OF_PERICENTER":"68.8909","SITE":"AFETR","PERIAPSIS":"546.371","DECAY_DATE":null,"NORAD_CAT_ID":"48404","MEAN_ELEMENT_THEORY":"SGP4","CLASSIFICATION_TYPE":"U","MEAN_MOTION_DOT":"0.00000954","GP_ID":"206895396"},{"INCLINATION":"53.0543","BSTAR":"0.00003709400000","RA_OF_ASC_NODE":"291.4776","SEMIMAJOR_AXIS":"6925.332","REV_AT_EPOCH":"6351","MEAN_ANOMALY":"292.5062","PERIOD":"95.592","OBJECT_TYPE":"PAYLOAD","RCS_SIZE":"LARGE","LAUNCH_DATE":"2021-05-04","REF_FRAME":"TEME","TLE_LINE2":"2 48405  53.0543 291.4776 0001614  67.6098 292.5062 15.06405442 63519","FILE":"3503181","COUNTRY_CODE":"US","ELEMENT_SET_NO":"999","MEAN_MOTION_DDOT":"0.0000000000000","OBJECT_ID":"2021-038BE","EPHEMERIS_TYPE":"0","CENTER_NAME":"EARTH","MEAN_MOTION_DOT":"0.00000271","GP_ID":"206895646","MEAN_ELEMENT_THEORY":"SGP4","CLASSIFICATION_TYPE":"U","TLE_LINE1":"1 48405U 21038BE  22177.57939120  .00000271  00000-0  37094-4 0  9997","SITE":"AFETR","ARG_OF_PERICENTER":"67.6098","PERIAPSIS":"546.079","NORAD_CAT_ID":"48405","DECAY_DATE":null,"TIME_SYSTEM":"UTC","APOAPSIS":"548.315","ECCENTRICITY":"0.00016140","MEAN_MOTION":"15.06405442","OBJECT_NAME":"STARLINK-2570","EPOCH":"2022-06-26T13:54:19.399680"},{"MEAN_MOTION_DOT":"0.00001764","GP_ID":"206926706","CLASSIFICATION_TYPE":"U","MEAN_ELEMENT_THEORY":"SGP4","DECAY_DATE":null,"NORAD_CAT_ID":"48406","TLE_LINE1":"1 48406U 21038BF  22177.64204872  .00001764  00000-0  13723-3 0  9995","ARG_OF_PERICENTER":"59.7057","SITE":"AFETR","PERIAPSIS":"546.071","APOAPSIS":"548.298","TIME_SYSTEM":"UTC","ECCENTRICITY":"0.00016080","MEAN_MOTION":"15.06409590","OBJECT_NAME":"STARLINK-2568","EPOCH":"2022-06-26T15:24:33.009408","BSTAR":"0.00013723000000","INCLINATION":"53.0545","RA_OF_ASC_NODE":"291.2087","REV_AT_EPOCH":"6352","SEMIMAJOR_AXIS":"6925.319","PERIOD":"95.592","MEAN_ANOMALY":"300.4091","OBJECT_TYPE":"PAYLOAD","RCS_SIZE":"LARGE","REF_FRAME":"TEME","LAUNCH_DATE":"2021-05-04","COUNTRY_CODE":"US","TLE_LINE2":"2 48406  53.0545 291.2087 0001608  59.7057 300.4091 15.06409590 63525","FILE":"3503441","ELEMENT_SET_NO":"999","MEAN_MOTION_DDOT":"0.0000000000000","EPHEMERIS_TYPE":"0","CENTER_NAME":"EARTH","OBJECT_ID":"2021-038BF"}];
